[{"OBJECT_NAME":"OBJECT D","OBJECT_ID":"2025-013D","EPOCH":"2026-03-09T22:45:56.369376","MEAN_MOTION":15.10588544,"ECCENTRICITY":0.0008827,"INCLINATION":97.6457,"RA_OF_ASC_NODE":238.3603,"ARG_OF_PERICENTER":18.3993,"MEAN_ANOMALY":341.7554,"EPHEMERIS_TYPE":0,"CLASSIFICATION_TYPE":"U","NORAD_CAT_ID":62732,"ELEMENT_SET_NO":999,"REV_AT_EPOCH":6229,"BSTAR":0.00036300228,"MEAN_MOTION_DOT":5.935e-5,"MEAN_MOTION_DDOT":0},{"OBJECT_NAME":"ARIANE 2 DEB","OBJECT_ID":"1989-006AG","EPOCH":"2026-03-07T07:31:45.202368","MEAN_MOTION":2.39486848,"ECCENTRICITY":0.7081526,"INCLINATION":8.644,"RA_OF_ASC_NODE":347.4698,"ARG_OF_PERICENTER":253.9092,"MEAN_ANOMALY":23.3342,"EPHEMERIS_TYPE":0,"CLASSIFICATION_TYPE":"U","NORAD_CAT_ID":28565,"ELEMENT_SET_NO":999,"REV_AT_EPOCH":18816,"BSTAR":0.0005313,"MEAN_MOTION_DOT":1.9e-7,"MEAN_MOTION_DDOT":0}]
